{
  "shop/telecommunication|A1": {
    "countryCodes": [
      "at",
      "bg",
      "by",
      "hr",
      "si"
    ],
    "matchNames": [
      "velcom",
      "velcom|a1",
      "велком"
    ],
    "nomatch": ["shop/mobile_phone|A1"],
    "tags": {
      "brand": "A1",
      "brand:wikidata": "Q688755",
      "brand:wikipedia": "en:A1 Telekom Austria Group",
      "name": "A1",
      "shop": "telecommunication"
    }
  },
  "shop/telecommunication|Agencia ICE": {
    "tags": {
      "brand": "Agencia ICE",
      "name": "Agencia ICE",
      "shop": "telecommunication"
    }
  },
  "shop/telecommunication|Bell": {
    "countryCodes": ["ca"],
    "matchNames": ["bell canada"],
    "nomatch": ["shop/mobile_phone|Bell"],
    "tags": {
      "brand": "Bell",
      "brand:wikidata": "Q815694",
      "brand:wikipedia": "en:Bell Canada",
      "name": "Bell",
      "shop": "telecommunication"
    }
  },
  "shop/telecommunication|Ooredoo": {
    "tags": {
      "brand": "Ooredoo",
      "brand:wikidata": "Q919935",
      "brand:wikipedia": "en:Ooredoo",
      "name": "Ooredoo",
      "shop": "telecommunication"
    }
  },
  "shop/telecommunication|Spectrum": {
    "countryCodes": ["us"],
    "tags": {
      "brand": "Spectrum",
      "brand:wikidata": "Q7805197",
      "brand:wikipedia": "en:Spectrum (cable service)",
      "name": "Spectrum",
      "shop": "telecommunication"
    }
  },
  "shop/telecommunication|Xfinity": {
    "countryCodes": ["us"],
    "tags": {
      "brand": "Xfinity",
      "brand:wikidata": "Q5151002",
      "brand:wikipedia": "en:Xfinity",
      "name": "Xfinity",
      "shop": "telecommunication"
    }
  },
  "shop/telecommunication|Дом.ru": {
    "tags": {
      "brand": "Дом.ru",
      "name": "Дом.ru",
      "shop": "telecommunication"
    }
  },
  "shop/telecommunication|МТС": {
    "countryCodes": ["by", "ru", "ua"],
    "nomatch": ["shop/mobile_phone|МТС"],
    "tags": {
      "brand": "МТС",
      "brand:en": "MTS",
      "brand:wikidata": "Q1368919",
      "brand:wikipedia": "en:MTS (network provider)",
      "name": "МТС",
      "name:en": "MTS",
      "shop": "telecommunication"
    }
  },
  "shop/telecommunication|Магазин lifecell": {
    "tags": {
      "brand": "Магазин lifecell",
      "name": "Магазин lifecell",
      "shop": "telecommunication"
    }
  },
  "shop/telecommunication|Ростелеком": {
    "countryCodes": ["ru"],
    "tags": {
      "brand": "Ростелеком",
      "brand:wikidata": "Q1477012",
      "brand:wikipedia": "en:Rostelecom",
      "name": "Ростелеком",
      "shop": "telecommunication"
    }
  },
  "shop/telecommunication|Укртелеком": {
    "countryCodes": ["ua"],
    "tags": {
      "brand": "Укртелеком",
      "brand:wikidata": "Q1505321",
      "brand:wikipedia": "en:Ukrtelecom",
      "name": "Укртелеком",
      "shop": "telecommunication"
    }
  },
  "shop/telecommunication|中華電信": {
    "countryCodes": ["tw"],
    "tags": {
      "brand": "中華電信",
      "brand:en": "Chunghwa Telecom",
      "brand:wikidata": "Q717531",
      "brand:wikipedia": "zh:中華電信",
      "brand:zh": "中華電信",
      "name": "中華電信",
      "name:en": "Chunghwa Telecom",
      "name:zh": "中華電信",
      "shop": "telecommunication"
    }
  },
  "shop/telecommunication|遠傳電信": {
    "countryCodes": ["tw"],
    "tags": {
      "brand": "遠傳電信",
      "brand:en": "FarEasTone",
      "brand:wikidata": "Q5434486",
      "brand:wikipedia": "zh:遠傳電信",
      "brand:zh": "遠傳電信",
      "name": "遠傳電信",
      "name:en": "FarEasTone",
      "name:zh": "遠傳電信",
      "shop": "telecommunication"
    }
  }
}